{
  "norad_id": 61703,
  "name": "STARLINK-32335",
  "history": [
    {
      "epoch": "2026-03-30T04:00:01.999584Z",
      "apogee_km": 372.83144203004395,
      "perigee_km": 356.7973778723217,
      "latitude_deg": -21.96632765556391,
      "longitude_deg": 1.3381429146999955,
      "height_km": 372.8858951738406,
      "semi_major_axis_km": 6742.9514099511825,
      "eccentricity": 0.00118895,
      "inclination_deg": 53.1441,
      "raan_deg": 51.4116,
      "arg_perigee_deg": 104.1703,
      "mean_anomaly_deg": 103.318,
      "mean_motion_rev_day": 15.6793378
    }
  ]
}